{
  "type": "FeatureCollection",
  "features": [
    {
      "type": "Feature",
      "properties": {
        "norad_id": 64903,
        "name": "CO3D 1",
        "group": "resource",
        "lat": 59.03043763892448,
        "lon": 58.36968190793557,
        "alt_km": 498.9620223136899,
        "timestamp": "2025-12-20T18:51:31.376065+00:00",
        "meta_object_name": "CO3D 1",
        "meta_object_id": "2025-156E",
        "meta_epoch": "2025-12-20T13:51:25.765056",
        "meta_mean_motion": 15.20198168,
        "meta_eccentricity": 9.132e-05,
        "meta_inclination": 97.4344,
        "meta_ra_of_asc_node": 70.7313,
        "meta_arg_of_pericenter": 77.4671,
        "meta_mean_anomaly": 282.6666,
        "meta_ephemeris_type": 0,
        "meta_classification_type": "U",
        "meta_norad_cat_id": 64903,
        "meta_element_set_no": 999,
        "meta_rev_at_epoch": 2239,
        "meta_bstar": 0.00019024847,
        "meta_mean_motion_dot": 4.053e-05,
        "meta_mean_motion_ddot": 0,
        "tle_line1": "1 64903U 25156E   25354.57738154  .00004053  00000+0  19025-3 0  9991",
        "tle_line2": "2 64903  97.4344  70.7313 0000913  77.4671 282.6666 15.20198168 22394"
      },
      "geometry": {
        "type": "Point",
        "coordinates": [
          58.36968190793557,
          59.03043763892448
        ]
      }
    },
    {
      "type": "Feature",
      "properties": {
        "norad_id": 66514,
        "name": "SENTINEL-6B",
        "group": "resource",
        "lat": 44.29894797814831,
        "lon": -60.00493261575356,
        "alt_km": 1335.1867801906346,
        "timestamp": "2025-12-20T18:51:31.376074+00:00",
        "meta_object_name": "SENTINEL-6B",
        "meta_object_id": "2025-264A",
        "meta_epoch": "2025-12-12T06:01:21.428544",
        "meta_mean_motion": 12.81479578,
        "meta_eccentricity": 0.00078482,
        "meta_inclination": 66.0385,
        "meta_ra_of_asc_node": 163.4531,
        "meta_arg_of_pericenter": 270.1376,
        "meta_mean_anomaly": 89.874,
        "meta_ephemeris_type": 0,
        "meta_classification_type": "U",
        "meta_norad_cat_id": 66514,
        "meta_element_set_no": 999,
        "meta_rev_at_epoch": 322,
        "meta_bstar": 0.00018573353,
        "meta_mean_motion_dot": -1.8e-07,
        "meta_mean_motion_ddot": 0,
        "tle_line1": "1 66514U 25264A   25346.25094246 -.00000018  00000+0  18573-3 0  9999",
        "tle_line2": "2 66514  66.0385 163.4531 0007848 270.1376  89.8740 12.81479578  3223"
      },
      "geometry": {
        "type": "Point",
        "coordinates": [
          -60.00493261575356,
          44.29894797814831
        ]
      }
    }
  ]
}